QIANFAN-49              
1 62250U 24232P   26003.09674603  .00000114  00000+0  15838-3 0  9997
2 62250  89.0006  39.0803 0015817 129.1926 231.0633 13.50982662 70721
QIANFAN-50              
1 62251U 24232Q   26003.12145106  .00000117  00000+0  16236-3 0  9999
2 62251  89.0012  39.0871 0017458 130.7856 229.4813 13.50979405 70752
QIANFAN-51              
1 62252U 24232R   26003.10498632  .00000109  00000+0  15059-3 0  9996
2 62252  89.0005  39.0814 0014867 133.4236 226.8156 13.50982148 70743
QIANFAN-52              
1 62253U 24232S   26003.13382527  .00000099  00000+0  13400-3 0  9991
2 62253  89.0002  38.9512 0017023 126.9377 233.3336 13.50980190 70832
QIANFAN-53              
1 62254U 24232T   26003.11319839  .00000115  00000+0  15902-3 0  9994
2 62254  89.0009  39.0594 0015881 127.7193 232.5400 13.50982657 70795
QIANFAN-54              
1 62255U 24232U   26003.15433301  .00000116  00000+0  16041-3 0  9996
2 62255  89.0000  38.7317 0003193 136.4368 223.7035 13.50983008102300
QIANFAN-55              
1 62785U 25016A   26003.18031174  .00000230  00000+0  33820-3 0  9991
2 62785  88.9780 100.9991 0015505 286.0915  73.8528 13.50983146 50082
QIANFAN-56              
1 62786U 25016B   26003.19679198  .00000208  00000+0  30350-3 0  9997
2 62786  88.9753 100.8281 0014155 288.7063  71.2552 13.50985904 50136
