<?xml version="1.0" encoding="UTF-8"?>
<ndm xmlns:xsi="http://www.w3.org/2001/XMLSchema-instance" xsi:noNamespaceSchemaLocation="https://sanaregistry.org/r/ndmxml_unqualified/ndmxml-2.0.0-master-2.0.xsd">
<omm id="CCSDS_OMM_VERS" version="2.0">
<header><CREATION_DATE/><ORIGINATOR/></header><body><segment><metadata><OBJECT_NAME>QIANFAN-49</OBJECT_NAME><OBJECT_ID>2024-232P</OBJECT_ID><CENTER_NAME>EARTH</CENTER_NAME><REF_FRAME>TEME</REF_FRAME><TIME_SYSTEM>UTC</TIME_SYSTEM><MEAN_ELEMENT_THEORY>SGP4</MEAN_ELEMENT_THEORY></metadata><data><meanElements><EPOCH>2026-01-03T02:19:18.856992</EPOCH><MEAN_MOTION>13.50982662</MEAN_MOTION><ECCENTRICITY>.0015817</ECCENTRICITY><INCLINATION>89.0006</INCLINATION><RA_OF_ASC_NODE>39.0803</RA_OF_ASC_NODE><ARG_OF_PERICENTER>129.1926</ARG_OF_PERICENTER><MEAN_ANOMALY>231.0633</MEAN_ANOMALY></meanElements><tleParameters><EPHEMERIS_TYPE>0</EPHEMERIS_TYPE><CLASSIFICATION_TYPE>U</CLASSIFICATION_TYPE><NORAD_CAT_ID>62250</NORAD_CAT_ID><ELEMENT_SET_NO>999</ELEMENT_SET_NO><REV_AT_EPOCH>7072</REV_AT_EPOCH><BSTAR>.15838E-3</BSTAR><MEAN_MOTION_DOT>.114E-5</MEAN_MOTION_DOT><MEAN_MOTION_DDOT>0</MEAN_MOTION_DDOT></tleParameters></data></segment></body></omm>
<omm id="CCSDS_OMM_VERS" version="2.0">
<header><CREATION_DATE/><ORIGINATOR/></header><body><segment><metadata><OBJECT_NAME>QIANFAN-50</OBJECT_NAME><OBJECT_ID>2024-232Q</OBJECT_ID><CENTER_NAME>EARTH</CENTER_NAME><REF_FRAME>TEME</REF_FRAME><TIME_SYSTEM>UTC</TIME_SYSTEM><MEAN_ELEMENT_THEORY>SGP4</MEAN_ELEMENT_THEORY></metadata><data><meanElements><EPOCH>2026-01-03T02:54:53.371584</EPOCH><MEAN_MOTION>13.50979405</MEAN_MOTION><ECCENTRICITY>.0017458</ECCENTRICITY><INCLINATION>89.0012</INCLINATION><RA_OF_ASC_NODE>39.0871</RA_OF_ASC_NODE><ARG_OF_PERICENTER>130.7856</ARG_OF_PERICENTER><MEAN_ANOMALY>229.4813</MEAN_ANOMALY></meanElements><tleParameters><EPHEMERIS_TYPE>0</EPHEMERIS_TYPE><CLASSIFICATION_TYPE>U</CLASSIFICATION_TYPE><NORAD_CAT_ID>62251</NORAD_CAT_ID><ELEMENT_SET_NO>999</ELEMENT_SET_NO><REV_AT_EPOCH>7075</REV_AT_EPOCH><BSTAR>.16236E-3</BSTAR><MEAN_MOTION_DOT>.117E-5</MEAN_MOTION_DOT><MEAN_MOTION_DDOT>0</MEAN_MOTION_DDOT></tleParameters></data></segment></body></omm>
<omm id="CCSDS_OMM_VERS" version="2.0">
<header><CREATION_DATE/><ORIGINATOR/></header><body><segment><metadata><OBJECT_NAME>QIANFAN-51</OBJECT_NAME><OBJECT_ID>2024-232R</OBJECT_ID><CENTER_NAME>EARTH</CENTER_NAME><REF_FRAME>TEME</REF_FRAME><TIME_SYSTEM>UTC</TIME_SYSTEM><MEAN_ELEMENT_THEORY>SGP4</MEAN_ELEMENT_THEORY></metadata><data><meanElements><EPOCH>2026-01-03T02:31:10.818048</EPOCH><MEAN_MOTION>13.50982148</MEAN_MOTION><ECCENTRICITY>.0014867</ECCENTRICITY><INCLINATION>89.0005</INCLINATION><RA_OF_ASC_NODE>39.0814</RA_OF_ASC_NODE><ARG_OF_PERICENTER>133.4236</ARG_OF_PERICENTER><MEAN_ANOMALY>226.8156</MEAN_ANOMALY></meanElements><tleParameters><EPHEMERIS_TYPE>0</EPHEMERIS_TYPE><CLASSIFICATION_TYPE>U</CLASSIFICATION_TYPE><NORAD_CAT_ID>62252</NORAD_CAT_ID><ELEMENT_SET_NO>999</ELEMENT_SET_NO><REV_AT_EPOCH>7074</REV_AT_EPOCH><BSTAR>.15059E-3</BSTAR><MEAN_MOTION_DOT>.109E-5</MEAN_MOTION_DOT><MEAN_MOTION_DDOT>0</MEAN_MOTION_DDOT></tleParameters></data></segment></body></omm>
<omm id="CCSDS_OMM_VERS" version="2.0">
<header><CREATION_DATE/><ORIGINATOR/></header><body><segment><metadata><OBJECT_NAME>QIANFAN-52</OBJECT_NAME><OBJECT_ID>2024-232S</OBJECT_ID><CENTER_NAME>EARTH</CENTER_NAME><REF_FRAME>TEME</REF_FRAME><TIME_SYSTEM>UTC</TIME_SYSTEM><MEAN_ELEMENT_THEORY>SGP4</MEAN_ELEMENT_THEORY></metadata><data><meanElements><EPOCH>2026-01-03T03:12:42.503328</EPOCH><MEAN_MOTION>13.50980190</MEAN_MOTION><ECCENTRICITY>.0017023</ECCENTRICITY><INCLINATION>89.0002</INCLINATION><RA_OF_ASC_NODE>38.9512</RA_OF_ASC_NODE><ARG_OF_PERICENTER>126.9377</ARG_OF_PERICENTER><MEAN_ANOMALY>233.3336</MEAN_ANOMALY></meanElements><tleParameters><EPHEMERIS_TYPE>0</EPHEMERIS_TYPE><CLASSIFICATION_TYPE>U</CLASSIFICATION_TYPE><NORAD_CAT_ID>62253</NORAD_CAT_ID><ELEMENT_SET_NO>999</ELEMENT_SET_NO><REV_AT_EPOCH>7083</REV_AT_EPOCH><BSTAR>.134E-3</BSTAR><MEAN_MOTION_DOT>.99E-6</MEAN_MOTION_DOT><MEAN_MOTION_DDOT>0</MEAN_MOTION_DDOT></tleParameters></data></segment></body></omm>
<omm id="CCSDS_OMM_VERS" version="2.0">
<header><CREATION_DATE/><ORIGINATOR/></header><body><segment><metadata><OBJECT_NAME>QIANFAN-53</OBJECT_NAME><OBJECT_ID>2024-232T</OBJECT_ID><CENTER_NAME>EARTH</CENTER_NAME><REF_FRAME>TEME</REF_FRAME><TIME_SYSTEM>UTC</TIME_SYSTEM><MEAN_ELEMENT_THEORY>SGP4</MEAN_ELEMENT_THEORY></metadata><data><meanElements><EPOCH>2026-01-03T02:43:00.340896</EPOCH><MEAN_MOTION>13.50982657</MEAN_MOTION><ECCENTRICITY>.0015881</ECCENTRICITY><INCLINATION>89.0009</INCLINATION><RA_OF_ASC_NODE>39.0594</RA_OF_ASC_NODE><ARG_OF_PERICENTER>127.7193</ARG_OF_PERICENTER><MEAN_ANOMALY>232.5400</MEAN_ANOMALY></meanElements><tleParameters><EPHEMERIS_TYPE>0</EPHEMERIS_TYPE><CLASSIFICATION_TYPE>U</CLASSIFICATION_TYPE><NORAD_CAT_ID>62254</NORAD_CAT_ID><ELEMENT_SET_NO>999</ELEMENT_SET_NO><REV_AT_EPOCH>7079</REV_AT_EPOCH><BSTAR>.15902E-3</BSTAR><MEAN_MOTION_DOT>.115E-5</MEAN_MOTION_DOT><MEAN_MOTION_DDOT>0</MEAN_MOTION_DDOT></tleParameters></data></segment></body></omm>
<omm id="CCSDS_OMM_VERS" version="2.0">
<header><CREATION_DATE/><ORIGINATOR/></header><body><segment><metadata><OBJECT_NAME>QIANFAN-54</OBJECT_NAME><OBJECT_ID>2024-232U</OBJECT_ID><CENTER_NAME>EARTH</CENTER_NAME><REF_FRAME>TEME</REF_FRAME><TIME_SYSTEM>UTC</TIME_SYSTEM><MEAN_ELEMENT_THEORY>SGP4</MEAN_ELEMENT_THEORY></metadata><data><meanElements><EPOCH>2026-01-03T03:42:14.372064</EPOCH><MEAN_MOTION>13.50983008</MEAN_MOTION><ECCENTRICITY>.0003193</ECCENTRICITY><INCLINATION>89.0000</INCLINATION><RA_OF_ASC_NODE>38.7317</RA_OF_ASC_NODE><ARG_OF_PERICENTER>136.4368</ARG_OF_PERICENTER><MEAN_ANOMALY>223.7035</MEAN_ANOMALY></meanElements><tleParameters><EPHEMERIS_TYPE>0</EPHEMERIS_TYPE><CLASSIFICATION_TYPE>U</CLASSIFICATION_TYPE><NORAD_CAT_ID>62255</NORAD_CAT_ID><ELEMENT_SET_NO>999</ELEMENT_SET_NO><REV_AT_EPOCH>10230</REV_AT_EPOCH><BSTAR>.16041E-3</BSTAR><MEAN_MOTION_DOT>.116E-5</MEAN_MOTION_DOT><MEAN_MOTION_DDOT>0</MEAN_MOTION_DDOT></tleParameters></data></segment></body></omm>
<omm id="CCSDS_OMM_VERS" version="2.0">
<header><CREATION_DATE/><ORIGINATOR/></header><body><segment><metadata><OBJECT_NAME>QIANFAN-55</OBJECT_NAME><OBJECT_ID>2025-016A</OBJECT_ID><CENTER_NAME>EARTH</CENTER_NAME><REF_FRAME>TEME</REF_FRAME><TIME_SYSTEM>UTC</TIME_SYSTEM><MEAN_ELEMENT_THEORY>SGP4</MEAN_ELEMENT_THEORY></metadata><data><meanElements><EPOCH>2026-01-03T04:19:38.934336</EPOCH><MEAN_MOTION>13.50983146</MEAN_MOTION><ECCENTRICITY>.0015505</ECCENTRICITY><INCLINATION>88.9780</INCLINATION><RA_OF_ASC_NODE>100.9991</RA_OF_ASC_NODE><ARG_OF_PERICENTER>286.0915</ARG_OF_PERICENTER><MEAN_ANOMALY>73.8528</MEAN_ANOMALY></meanElements><tleParameters><EPHEMERIS_TYPE>0</EPHEMERIS_TYPE><CLASSIFICATION_TYPE>U</CLASSIFICATION_TYPE><NORAD_CAT_ID>62785</NORAD_CAT_ID><ELEMENT_SET_NO>999</ELEMENT_SET_NO><REV_AT_EPOCH>5008</REV_AT_EPOCH><BSTAR>.3382E-3</BSTAR><MEAN_MOTION_DOT>.23E-5</MEAN_MOTION_DOT><MEAN_MOTION_DDOT>0</MEAN_MOTION_DDOT></tleParameters></data></segment></body></omm>
<omm id="CCSDS_OMM_VERS" version="2.0">
<header><CREATION_DATE/><ORIGINATOR/></header><body><segment><metadata><OBJECT_NAME>QIANFAN-56</OBJECT_NAME><OBJECT_ID>2025-016B</OBJECT_ID><CENTER_NAME>EARTH</CENTER_NAME><REF_FRAME>TEME</REF_FRAME><TIME_SYSTEM>UTC</TIME_SYSTEM><MEAN_ELEMENT_THEORY>SGP4</MEAN_ELEMENT_THEORY></metadata><data><meanElements><EPOCH>2026-01-03T04:43:22.827072</EPOCH><MEAN_MOTION>13.50985904</MEAN_MOTION><ECCENTRICITY>.0014155</ECCENTRICITY><INCLINATION>88.9753</INCLINATION><RA_OF_ASC_NODE>100.8281</RA_OF_ASC_NODE><ARG_OF_PERICENTER>288.7063</ARG_OF_PERICENTER><MEAN_ANOMALY>71.2552</MEAN_ANOMALY></meanElements><tleParameters><EPHEMERIS_TYPE>0</EPHEMERIS_TYPE><CLASSIFICATION_TYPE>U</CLASSIFICATION_TYPE><NORAD_CAT_ID>62786</NORAD_CAT_ID><ELEMENT_SET_NO>999</ELEMENT_SET_NO><REV_AT_EPOCH>5013</REV_AT_EPOCH><BSTAR>.3035E-3</BSTAR><MEAN_MOTION_DOT>.208E-5</MEAN_MOTION_DOT><MEAN_MOTION_DDOT>0</MEAN_MOTION_DDOT></tleParameters></data></segment></body></omm>

</ndm>
